{
  "links" : {
    "next" : "https://api.nasa.gov/neo/rest/v1/feed?start_date=2007-07-09&end_date=2007-07-09&detailed=true&api_key=t0TVs3DtDT2H8Oy2Zy8m2eVrNsAVKAexjcZXUckd",
    "prev" : "https://api.nasa.gov/neo/rest/v1/feed?start_date=2007-07-07&end_date=2007-07-07&detailed=true&api_key=t0TVs3DtDT2H8Oy2Zy8m2eVrNsAVKAexjcZXUckd",
    "self" : "https://api.nasa.gov/neo/rest/v1/feed?start_date=2007-07-08&end_date=2007-07-08&detailed=true&api_key=t0TVs3DtDT2H8Oy2Zy8m2eVrNsAVKAexjcZXUckd"
  },
  "element_count" : 6,
  "near_earth_objects" : {
    "2007-07-08" : [ {
      "links" : {
        "self" : "https://api.nasa.gov/neo/rest/v1/neo/3444371?api_key=t0TVs3DtDT2H8Oy2Zy8m2eVrNsAVKAexjcZXUckd"
      },
      "neo_reference_id" : "3444371",
      "name" : "(2009 BJ2)",
      "nasa_jpl_url" : "http://ssd.jpl.nasa.gov/sbdb.cgi?sstr=3444371",
      "absolute_magnitude_h" : 27.1,
      "estimated_diameter" : {
        "kilometers" : {
          "estimated_diameter_min" : 0.0101054342,
          "estimated_diameter_max" : 0.0225964377
        },
        "meters" : {
          "estimated_diameter_min" : 10.1054341542,
          "estimated_diameter_max" : 22.5964377109
        },
        "miles" : {
          "estimated_diameter_min" : 0.0062792237,
          "estimated_diameter_max" : 0.0140407711
        },
        "feet" : {
          "estimated_diameter_min" : 33.1543125905,
          "estimated_diameter_max" : 74.1352966996
        }
      },
      "is_potentially_hazardous_asteroid" : false,
      "close_approach_data" : [ {
        "close_approach_date" : "2007-07-08",
        "epoch_date_close_approach" : 1183878000000,
        "relative_velocity" : {
          "kilometers_per_second" : "9.335961184",
          "kilometers_per_hour" : "33609.4602623465",
          "miles_per_hour" : "20883.6115724563"
        },
        "miss_distance" : {
          "astronomical" : "0.2830047945",
          "lunar" : "110.0888671875",
          "kilometers" : "42336916",
          "miles" : "26306938"
        },
        "orbiting_body" : "Earth"
      } ],
      "orbital_data" : {
        "orbit_id" : "7",
        "orbit_determination_date" : "2017-04-06 09:01:37",
        "orbit_uncertainty" : "6",
        "minimum_orbit_intersection" : ".0115762",
        "jupiter_tisserand_invariant" : "6.313",
        "epoch_osculation" : "2458000.5",
        "eccentricity" : ".2789381251155816",
        "semi_major_axis" : ".9462583597208309",
        "inclination" : "6.504062867052895",
        "ascending_node_longitude" : "296.1455870151312",
        "orbital_period" : "336.2118534547016",
        "perihelion_distance" : ".6823108269853568",
        "perihelion_argument" : "300.081148657659",
        "aphelion_distance" : "1.210205892456305",
        "perihelion_time" : "2457957.826110318905",
        "mean_anomaly" : "45.69321434487789",
        "mean_motion" : "1.070753443999271",
        "equinox" : "J2000"
      }
    }, {
      "links" : {
        "self" : "https://api.nasa.gov/neo/rest/v1/neo/3755187?api_key=t0TVs3DtDT2H8Oy2Zy8m2eVrNsAVKAexjcZXUckd"
      },
      "neo_reference_id" : "3755187",
      "name" : "(2016 NJ22)",
      "nasa_jpl_url" : "http://ssd.jpl.nasa.gov/sbdb.cgi?sstr=3755187",
      "absolute_magnitude_h" : 28.4,
      "estimated_diameter" : {
        "kilometers" : {
          "estimated_diameter_min" : 0.0055533491,
          "estimated_diameter_max" : 0.0124176661
        },
        "meters" : {
          "estimated_diameter_min" : 5.5533491158,
          "estimated_diameter_max" : 12.4176661257
        },
        "miles" : {
          "estimated_diameter_min" : 0.0034506901,
          "estimated_diameter_max" : 0.0077159776
        },
        "feet" : {
          "estimated_diameter_min" : 18.2196499131,
          "estimated_diameter_max" : 40.740375732
        }
      },
      "is_potentially_hazardous_asteroid" : false,
      "close_approach_data" : [ {
        "close_approach_date" : "2007-07-08",
        "epoch_date_close_approach" : 1183878000000,
        "relative_velocity" : {
          "kilometers_per_second" : "6.9710501279",
          "kilometers_per_hour" : "25095.780460453",
          "miles_per_hour" : "15593.5420311076"
        },
        "miss_distance" : {
          "astronomical" : "0.008331752",
          "lunar" : "3.2410516739",
          "kilometers" : "1246412.375",
          "miles" : "774484.75"
        },
        "orbiting_body" : "Earth"
      } ],
      "orbital_data" : {
        "orbit_id" : "3",
        "orbit_determination_date" : "2017-04-06 08:25:06",
        "orbit_uncertainty" : "5",
        "minimum_orbit_intersection" : ".00136991",
        "jupiter_tisserand_invariant" : "6.309",
        "epoch_osculation" : "2458000.5",
        "eccentricity" : ".1862735027566895",
        "semi_major_axis" : ".9495233532264336",
        "inclination" : "8.881277540677299",
        "ascending_node_longitude" : "285.7656340211381",
        "orbital_period" : "337.9534643021906",
        "perihelion_distance" : ".7726523122716684",
        "perihelion_argument" : "237.5039274080578",
        "aphelion_distance" : "1.126394394181199",
        "perihelion_time" : "2458156.493273032905",
        "mean_anomaly" : "193.8304405081313",
        "mean_motion" : "1.065235418560751",
        "equinox" : "J2000"
      }
    }, {
      "links" : {
        "self" : "https://api.nasa.gov/neo/rest/v1/neo/2475950?api_key=t0TVs3DtDT2H8Oy2Zy8m2eVrNsAVKAexjcZXUckd"
      },
      "neo_reference_id" : "2475950",
      "name" : "475950 (2007 FE1)",
      "nasa_jpl_url" : "http://ssd.jpl.nasa.gov/sbdb.cgi?sstr=2475950",
      "absolute_magnitude_h" : 18.7,
      "estimated_diameter" : {
        "kilometers" : {
          "estimated_diameter_min" : 0.4836764882,
          "estimated_diameter_max" : 1.0815335068
        },
        "meters" : {
          "estimated_diameter_min" : 483.6764882185,
          "estimated_diameter_max" : 1081.533506775
        },
        "miles" : {
          "estimated_diameter_min" : 0.3005425432,
          "estimated_diameter_max" : 0.6720335566
        },
        "feet" : {
          "estimated_diameter_min" : 1586.8651696069,
          "estimated_diameter_max" : 3548.3383903678
        }
      },
      "is_potentially_hazardous_asteroid" : false,
      "close_approach_data" : [ {
        "close_approach_date" : "2007-07-08",
        "epoch_date_close_approach" : 1183878000000,
        "relative_velocity" : {
          "kilometers_per_second" : "13.598557107",
          "kilometers_per_hour" : "48954.8055850794",
          "miles_per_hour" : "30418.6123925734"
        },
        "miss_distance" : {
          "astronomical" : "0.1715628787",
          "lunar" : "66.7379608154",
          "kilometers" : "25665442",
          "miles" : "15947766"
        },
        "orbiting_body" : "Earth"
      } ],
      "orbital_data" : {
        "orbit_id" : "34",
        "orbit_determination_date" : "2017-04-06 09:19:03",
        "orbit_uncertainty" : "0",
        "minimum_orbit_intersection" : ".0657158",
        "jupiter_tisserand_invariant" : "3.604",
        "epoch_osculation" : "2458000.5",
        "eccentricity" : ".5477441248958655",
        "semi_major_axis" : "2.018838289788775",
        "inclination" : "9.847701229593762",
        "ascending_node_longitude" : "44.76182242474539",
        "orbital_period" : "1047.733249863619",
        "perihelion_distance" : ".9130314774421568",
        "perihelion_argument" : "193.1938313044647",
        "aphelion_distance" : "3.124645102135394",
        "perihelion_time" : "2458450.460083488685",
        "mean_anomaly" : "205.394206896639",
        "mean_motion" : ".343598907495644",
        "equinox" : "J2000"
      }
    } ]
  }
}